[{"OBJECT_NAME":"SALSAT","OBJECT_ID":"2020-068K","EPOCH":"2026-03-09T22:26:21.804576","MEAN_MOTION":15.28191989,"ECCENTRICITY":0.00082652,"INCLINATION":97.8859,"RA_OF_ASC_NODE":66.0795,"ARG_OF_PERICENTER":295.8051,"MEAN_ANOMALY":64.2334,"EPHEMERIS_TYPE":0,"CLASSIFICATION_TYPE":"U","NORAD_CAT_ID":46495,"ELEMENT_SET_NO":999,"REV_AT_EPOCH":30019,"BSTAR":0.00040842582,"MEAN_MOTION_DOT":0.00011156,"MEAN_MOTION_DDOT":0},{"OBJECT_NAME":"STARLINK-34083","OBJECT_ID":"2025-095U","EPOCH":"2026-03-09T14:54:17.290944","MEAN_MOTION":15.27606861,"ECCENTRICITY":0.0003141,"INCLINATION":43.0061,"RA_OF_ASC_NODE":176.9324,"ARG_OF_PERICENTER":299.8371,"MEAN_ANOMALY":60.2168,"EPHEMERIS_TYPE":0,"CLASSIFICATION_TYPE":"U","NORAD_CAT_ID":63908,"ELEMENT_SET_NO":999,"REV_AT_EPOCH":4776,"BSTAR":0.0010661,"MEAN_MOTION_DOT":0.00029217,"MEAN_MOTION_DDOT":0}]
